STARLINK-38005          
1 69677U 26145A   26182.91668981 -.00725020  00000+0 -40687-2 0  9994
2 69677  97.2845  29.0891 0001541  93.8400 345.0371 15.81026634  2298
STARLINK-38009          
1 69678U 26145B   26182.91668981  .00102718  00000+0  53203-3 0  9995
2 69678  97.2846  29.0914 0000937 109.0160 334.6254 15.80761833  2297
STARLINK-37998          
1 69679U 26145C   26182.91668981  .00077067  00000+0  39958-3 0  9995
2 69679  97.2845  29.0936 0001576 108.5582 339.0447 15.80813168  2295
STARLINK-37994          
1 69680U 26145D   26182.91668981  .00223978  00000+0  11453-2 0  9990
2 69680  97.2845  29.0935 0000580  65.8428  22.3989 15.80719917  2294
STARLINK-37992          
1 69681U 26145E   26182.91668981  .00071418  00000+0  37128-3 0  9999
2 69681  97.2846  29.0941 0001618 117.8078 332.2989 15.80772338  2294
STARLINK-37997          
1 69682U 26145F   26182.91668981  .00057890  00000+0  30139-3 0  9993
2 69682  97.2847  29.0952 0001841 125.8435 325.8785 15.80783715  2295
STARLINK-37990          
1 69683U 26145G   26182.91668981 -.01044859  00000+0 -60564-2 0  9992
2 69683  97.2846  29.0979 0002126  97.2623   2.4656 15.81129675  2297
STARLINK-37951          
1 69684U 26145H   26182.91668981  .00098787  00000+0  51183-3 0  9997
2 69684  97.2845  29.0984 0001588 102.0951 358.3880 15.80765089  2299
STARLINK-37957          
1 69685U 26145J   26182.91668981  .00087989  00000+0  45614-3 0  9992
2 69685  97.2846  29.0998 0000825 122.5384 340.7958 15.80784946  2290
STARLINK-37968          
1 69686U 26145K   26182.91668981 -.00036079  00000+0 -18818-3 0  9995
2 69686  97.2852  29.1120 0001216  76.2209  53.7041 15.80841105  2297
STARLINK-37977          
1 69687U 26145L   26182.91668981 -.00607995  00000+0 -33361-2 0  9996
2 69687  97.2855  29.1139 0001321  89.4068  46.6722 15.81226583  2292
STARLINK-37908          
1 69688U 26145M   26182.91668981 -.01353399  00000+0 -77045-2 0  9991
2 69688  97.2856  29.1172 0001429  96.5445  45.8322 15.81804192  2293
STARLINK-37979          
1 69689U 26145N   26182.91668981 -.01381206  00000+0 -78483-2 0  9997
2 69689  97.2855  29.1188 0001526  77.6867  68.3356 15.81905823  2296
STARLINK-37940          
1 69690U 26145P   26182.91668981 -.02065274  00000+0 -11444-1 0  9997
2 69690  97.2857  29.1224 0001699  80.1835  73.8822 15.82694724  2291
STARLINK-37961          
1 69691U 26145Q   26182.91668981 -.02263834  00000+0 -12367-1 0  9995
2 69691  97.2859  29.1264 0002008  80.3727  81.4871 15.83335368  2291
STARLINK-37787          
1 69692U 26145R   26182.91668981 -.02194168  00000+0 -11704-1 0  9993
2 69692  97.2861  29.1296 0001795  87.3517  82.8654 15.83716424  2296
STARLINK-37962          
1 69693U 26145S   26182.91668981 -.02189750  00000+0 -11671-1 0  9998
2 69693  97.2863  29.1297 0001850  85.3541  84.1654 15.83723653  2294
STARLINK-37953          
1 69694U 26145T   26182.91668981 -.02194455  00000+0 -11727-1 0  9999
2 69694  97.2863  29.1297 0002019  90.8162  80.1686 15.83673948  2295
STARLINK-37926          
1 69695U 26145U   26182.91668981 -.02205302  00000+0 -11708-1 0  9993
2 69695  97.2862  29.1313 0001749  89.9309  83.9789 15.83834786  2299
STARLINK-37959          
1 69696U 26145V   26182.91668981 -.02085303  00000+0 -10981-1 0  9993
2 69696  97.2865  29.1318 0001707  83.7558  91.1225 15.83801416  2290
STARLINK-37976          
1 69697U 26145W   26182.91668981 -.02299023  00000+0 -11824-1 0  9997
2 69697  97.2867  29.1352 0001742  96.6792  89.4896 15.84659658  2297
STARLINK-37912          
1 69698U 26145X   26182.91668981 -.02292308  00000+0 -11563-1 0  9997
2 69698  97.2868  29.1384 0001769  93.7949  98.4415 15.85047213  2291
STARLINK-37974          
1 69699U 26145Y   26182.91668981 -.02293596  00000+0 -11491-1 0  9998
2 69699  97.2869  29.1394 0001755  97.4941  97.5726 15.85190237  2292
STARLINK-37955          
1 69700U 26145Z   26182.91668981 -.02272317  00000+0 -10879-1 0  9998
2 69700  97.2873  29.1450 0001511  98.4951 109.1473 15.86087742  2291
STRIX-8                 
1 69701U 26146A   26182.80775906  .00005572  00000+0  40588-3 0  9999
2 69701  41.9894  87.2490 0009114 299.6797  60.3122 15.04329572   769
STARLINK-38055          
1 69704U 26147A   26182.91668981 -.02350066  15983-2 -50945-2 0  9990
2 69704  97.2836 218.4802 0001407  55.1771  55.2790 15.98534338  1611
STARLINK-37898          
1 69705U 26147B   26182.91668981 -.02331519  15768-2 -50096-2 0  9991
2 69705  97.2834 218.4805 0001417  54.6705  56.5949 15.98693566  1614
STARLINK-37970          
1 69706U 26147C   26182.91668981 -.02309601  15509-2 -49187-2 0  9991
2 69706  97.2835 218.4810 0001304  61.3112  50.7847 15.98851940  1619
