OBJECT_NAME,OBJECT_ID,EPOCH,MEAN_MOTION,ECCENTRICITY,INCLINATION,RA_OF_ASC_NODE,ARG_OF_PERICENTER,MEAN_ANOMALY,EPHEMERIS_TYPE,CLASSIFICATION_TYPE,NORAD_CAT_ID,ELEMENT_SET_NO,REV_AT_EPOCH,BSTAR,MEAN_MOTION_DOT,MEAN_MOTION_DDOT
STARLINK-38005,2026-145A,2026-07-01T22:00:01.999584,15.81026634,.00015416,97.2845,29.0891,93.8400,345.0371,0,U,69677,999,229,-.4068696E-2,-.72502E-2,0
STARLINK-38009,2026-145B,2026-07-01T22:00:01.999584,15.80761833,.00009377,97.2846,29.0914,109.0160,334.6254,0,U,69678,999,229,.53202519E-3,.102718E-2,0
STARLINK-37998,2026-145C,2026-07-01T22:00:01.999584,15.80813168,.00015762,97.2845,29.0936,108.5582,339.0447,0,U,69679,999,229,.39957975E-3,.77067E-3,0
STARLINK-37994,2026-145D,2026-07-01T22:00:01.999584,15.80719917,.000058,97.2845,29.0935,65.8428,22.3989,0,U,69680,999,229,.11452773E-2,.223978E-2,0
STARLINK-37992,2026-145E,2026-07-01T22:00:01.999584,15.80772338,.00016181,97.2846,29.0941,117.8078,332.2989,0,U,69681,999,229,.37127572E-3,.71418E-3,0
STARLINK-37997,2026-145F,2026-07-01T22:00:01.999584,15.80783715,.00018419,97.2847,29.0952,125.8435,325.8785,0,U,69682,999,229,.3013906E-3,.5789E-3,0
STARLINK-37990,2026-145G,2026-07-01T22:00:01.999584,15.81129675,.00021265,97.2846,29.0979,97.2623,2.4656,0,U,69683,999,229,-.60563534E-2,-.1044859E-1,0
STARLINK-37951,2026-145H,2026-07-01T22:00:01.999584,15.80765089,.00015882,97.2845,29.0984,102.0951,358.3880,0,U,69684,999,229,.51183204E-3,.98787E-3,0
STARLINK-37957,2026-145J,2026-07-01T22:00:01.999584,15.80784946,.00008259,97.2846,29.0998,122.5384,340.7958,0,U,69685,999,229,.45613901E-3,.87989E-3,0
STARLINK-37968,2026-145K,2026-07-01T22:00:01.999584,15.80841105,.00012161,97.2852,29.1120,76.2209,53.7041,0,U,69686,999,229,-.18817646E-3,-.36079E-3,0
STARLINK-37977,2026-145L,2026-07-01T22:00:01.999584,15.81226583,.00013217,97.2855,29.1139,89.4068,46.6722,0,U,69687,999,229,-.33361438E-2,-.607995E-2,0
STARLINK-37908,2026-145M,2026-07-01T22:00:01.999584,15.81804192,.00014296,97.2856,29.1172,96.5445,45.8322,0,U,69688,999,229,-.77045336E-2,-.1353399E-1,0
STARLINK-37979,2026-145N,2026-07-01T22:00:01.999584,15.81905823,.00015265,97.2855,29.1188,77.6867,68.3356,0,U,69689,999,229,-.78483465E-2,-.1381206E-1,0
STARLINK-37940,2026-145P,2026-07-01T22:00:01.999584,15.82694724,.00016991,97.2857,29.1224,80.1835,73.8822,0,U,69690,999,229,-.11444329E-1,-.2065274E-1,0
STARLINK-37961,2026-145Q,2026-07-01T22:00:01.999584,15.83335368,.00020083,97.2859,29.1264,80.3727,81.4871,0,U,69691,999,229,-.12367457E-1,-.2263834E-1,0
STARLINK-37787,2026-145R,2026-07-01T22:00:01.999584,15.83716424,.00017957,97.2861,29.1296,87.3517,82.8654,0,U,69692,999,229,-.11703817E-1,-.2194168E-1,0
STARLINK-37962,2026-145S,2026-07-01T22:00:01.999584,15.83723653,.00018509,97.2863,29.1297,85.3541,84.1654,0,U,69693,999,229,-.11671443E-1,-.218975E-1,0
STARLINK-37953,2026-145T,2026-07-01T22:00:01.999584,15.83673948,.00020195,97.2863,29.1297,90.8162,80.1686,0,U,69694,999,229,-.11727404E-1,-.2194455E-1,0
STARLINK-37926,2026-145U,2026-07-01T22:00:01.999584,15.83834786,.00017494,97.2862,29.1313,89.9309,83.9789,0,U,69695,999,229,-.11708018E-1,-.2205302E-1,0
STARLINK-37959,2026-145V,2026-07-01T22:00:01.999584,15.83801416,.0001707,97.2865,29.1318,83.7558,91.1225,0,U,69696,999,229,-.10980808E-1,-.2085303E-1,0
STARLINK-37976,2026-145W,2026-07-01T22:00:01.999584,15.84659658,.00017421,97.2867,29.1352,96.6792,89.4896,0,U,69697,999,229,-.1182395E-1,-.2299023E-1,0
STARLINK-37912,2026-145X,2026-07-01T22:00:01.999584,15.85047213,.00017696,97.2868,29.1384,93.7949,98.4415,0,U,69698,999,229,-.1156317E-1,-.2292308E-1,0
STARLINK-37974,2026-145Y,2026-07-01T22:00:01.999584,15.85190237,.00017555,97.2869,29.1394,97.4941,97.5726,0,U,69699,999,229,-.11490934E-1,-.2293596E-1,0
STARLINK-37955,2026-145Z,2026-07-01T22:00:01.999584,15.86087742,.00015116,97.2873,29.1450,98.4951,109.1473,0,U,69700,999,229,-.10878549E-1,-.2272317E-1,0
STRIX-8,2026-146A,2026-07-01T19:23:10.382784,15.04329572,.0009114,41.9894,87.2490,299.6797,60.3122,0,U,69701,999,76,.40587978E-3,.5572E-4,0
STARLINK-38055,2026-147A,2026-07-01T22:00:01.999584,15.98534338,.00014079,97.2836,218.4802,55.1771,55.2790,0,U,69704,999,161,-.50945372E-2,-.2350066E-1,.15982978E-2
STARLINK-37898,2026-147B,2026-07-01T22:00:01.999584,15.98693566,.00014176,97.2834,218.4805,54.6705,56.5949,0,U,69705,999,161,-.50095598E-2,-.2331519E-1,.15767682E-2
STARLINK-37970,2026-147C,2026-07-01T22:00:01.999584,15.98851940,.00013046,97.2835,218.4810,61.3112,50.7847,0,U,69706,999,161,-.49186978E-2,-.2309601E-1,.15509208E-2
